GLOBALSTAR M075         
1 37192U 10054E   25086.70733786 -.00000101  00000+0  15173-4 0  9997
2 37192  51.9946  69.6210 0000327  86.8986  83.9568 12.62262678666086
GLOBALSTAR M073         
1 37193U 10054F   25086.76379233 -.00000075  00000+0  16272-3 0  9997
2 37193  52.0087 343.2125 0000749  90.4559 335.0380 12.62269429667609
GLOBALSTAR M083         
1 37739U 11033A   25086.52884225 -.00000051  00000+0  29730-3 0  9994
2 37739  51.9857 292.7695 0000931  85.2469 293.3765 12.62261484636548
GLOBALSTAR M088         
1 37740U 11033B   25086.51597580 -.00000102  00000+0  87748-5 0  9992
2 37740  51.9723 198.3650 0000682 108.1099 332.7010 12.62264619632080
GLOBALSTAR M091         
1 37741U 11033C   25086.53475251 -.00000073  00000+0  16999-3 0  9990
2 37741  51.9984 161.7193 0000640  94.2051  11.1349 12.62266484632875
GLOBALSTAR M085         
1 37742U 11033D   25086.77379749 -.00000072  00000+0  17870-3 0  9990
2 37742  51.9846 112.1007 0000473  86.0824  86.1700 12.62266904633903
GLOBALSTAR M081         
1 37743U 11033E   25086.79991853 -.00000061  00000+0  23960-3 0  9994
2 37743  51.9938 114.7578 0000560 107.4715  63.6805 12.62262277633940
GLOBALSTAR M089         
1 37744U 11033F   25086.68110355 -.00000084  00000+0  11102-3 0  9993
2 37744  51.9927  69.3606 0000280 126.7748  44.3569 12.62267914634649
